PROGRESS-MS 34          
1 68837U 26093A   26198.57280181  .00003563  00000+0  72724-4 0  9992
2 68837  51.6316 149.7201 0006795 306.9083  53.1282 15.49033131575778
TIANZHOU-10             
1 69049U 26102A   26198.52240887  .00001129  00000+0  18813-4 0  9998
2 69049  41.4691 137.7269 0001921 301.5742  58.4908 15.58143309297501
SHENZHOU-23 (SZ-23)     
1 69180U 26113A   26198.52240887  .00001129  00000+0  18813-4 0  9996
2 69180  41.4691 137.7269 0001921 301.5742  58.4908 15.58143309297372
